FENGYUN 1C DEB          
1 31031U 99025BDZ 17346.38693647  .00000105  00000-0  75651-4 0  9994
2 31031  99.1615 127.3646 0029567 182.7376 203.5297 14.16901016554644
